start=new Date('2022-09-09T00:00:00.000Z').valueOf();
sats=[{"REF_FRAME":"TEME","EPOCH":"2022-09-09T00:00:02.000160","TLE_LINE1":"1 52544U 22051M   22252.00002315  .00029916  00000-0  18903-2 0  9994","PERIAPSIS":"538.367","MEAN_ELEMENT_THEORY":"SGP4","DECAY_DATE":null,"MEAN_MOTION_DDOT":"0.0000000000000","REV_AT_EPOCH":"1855","COUNTRY_CODE":"US","MEAN_ANOMALY":"265.3909","OBJECT_ID":"2022-051M","PERIOD":"95.438","APOAPSIS":"541.186","NORAD_CAT_ID":"52544","TLE_LINE2":"2 52544  53.2162 109.9065 0002037  58.3661 265.3909 15.08829860 18552","SEMIMAJOR_AXIS":"6917.911","EPHEMERIS_TYPE":"0","BSTAR":"0.00189030000000","ELEMENT_SET_NO":"999","RA_OF_ASC_NODE":"109.9065","INCLINATION":"53.2162","CLASSIFICATION_TYPE":"U","CENTER_NAME":"EARTH","RCS_SIZE":"LARGE","FILE":"3564421","MEAN_MOTION_DOT":"0.00029916","GP_ID":"212070533","SITE":"AFWTR","OBJECT_TYPE":"PAYLOAD","OBJECT_NAME":"STARLINK-3944","MEAN_MOTION":"15.08829860","ARG_OF_PERICENTER":"58.3661","LAUNCH_DATE":"2022-05-13","TIME_SYSTEM":"UTC","ECCENTRICITY":"0.00020370"},{"SITE":"AFWTR","ARG_OF_PERICENTER":"57.1232","OBJECT_TYPE":"PAYLOAD","MEAN_MOTION":"15.08836410","OBJECT_NAME":"STARLINK-3939","MEAN_MOTION_DOT":"0.00027531","GP_ID":"212070370","ECCENTRICITY":"0.00018870","TIME_SYSTEM":"UTC","LAUNCH_DATE":"2022-05-13","INCLINATION":"53.2167","RA_OF_ASC_NODE":"104.9037","EPHEMERIS_TYPE":"0","ELEMENT_SET_NO":"999","BSTAR":"0.00174130000000","SEMIMAJOR_AXIS":"6917.891","FILE":"3564421","RCS_SIZE":"LARGE","CENTER_NAME":"EARTH","CLASSIFICATION_TYPE":"U","COUNTRY_CODE":"US","REV_AT_EPOCH":"1862","DECAY_DATE":null,"MEAN_MOTION_DDOT":"0.0000000000000","TLE_LINE2":"2 52545  53.2167 104.9037 0001887  57.1232  34.0508 15.08836410 18628","NORAD_CAT_ID":"52545","APOAPSIS":"541.062","PERIOD":"95.438","MEAN_ANOMALY":"34.0508","OBJECT_ID":"2022-051N","PERIAPSIS":"538.451","TLE_LINE1":"1 52545U 22051N   22252.00002315  .00027531  00000-0  17413-2 0  9991","EPOCH":"2022-09-09T00:00:02.000160","REF_FRAME":"TEME","MEAN_ELEMENT_THEORY":"SGP4"},{"REF_FRAME":"TEME","EPOCH":"2022-09-09T00:00:02.000160","TLE_LINE1":"1 52546U 22051P   22252.00002315  .00043703  00000-0  27478-2 0  9993","PERIAPSIS":"538.431","MEAN_ELEMENT_THEORY":"SGP4","MEAN_MOTION_DDOT":"0.0000000000000","DECAY_DATE":null,"COUNTRY_CODE":"US","REV_AT_EPOCH":"1862","OBJECT_ID":"2022-051P","MEAN_ANOMALY":"112.2453","NORAD_CAT_ID":"52546","TLE_LINE2":"2 52546  53.2182 104.8865 0001944  53.6671 112.2453 15.08829880 18627","PERIOD":"95.438","APOAPSIS":"541.121","SEMIMAJOR_AXIS":"6917.911","RA_OF_ASC_NODE":"104.8865","INCLINATION":"53.2182","EPHEMERIS_TYPE":"0","ELEMENT_SET_NO":"999","BSTAR":"0.00274780000000","CLASSIFICATION_TYPE":"U","CENTER_NAME":"EARTH","FILE":"3564421","RCS_SIZE":"LARGE","GP_ID":"212070364","MEAN_MOTION_DOT":"0.00043703","OBJECT_NAME":"STARLINK-3948","SITE":"AFWTR","OBJECT_TYPE":"PAYLOAD","MEAN_MOTION":"15.08829880","ARG_OF_PERICENTER":"53.6671","TIME_SYSTEM":"UTC","LAUNCH_DATE":"2022-05-13","ECCENTRICITY":"0.00019440"},{"FILE":"3564421","RCS_SIZE":"LARGE","CENTER_NAME":"EARTH","CLASSIFICATION_TYPE":"U","INCLINATION":"53.2153","RA_OF_ASC_NODE":"109.9025","EPHEMERIS_TYPE":"0","ELEMENT_SET_NO":"999","BSTAR":"0.00194870000000","SEMIMAJOR_AXIS":"6917.920","ECCENTRICITY":"0.00021500","TIME_SYSTEM":"UTC","LAUNCH_DATE":"2022-05-13","MEAN_MOTION":"15.08826975","SITE":"AFWTR","OBJECT_TYPE":"PAYLOAD","OBJECT_NAME":"STARLINK-3869","ARG_OF_PERICENTER":"57.9140","GP_ID":"212070368","MEAN_MOTION_DOT":"0.00030851","MEAN_ELEMENT_THEORY":"SGP4","TLE_LINE1":"1 52547U 22051Q   22252.00002315  .00030851  00000-0  19487-2 0  9995","EPOCH":"2022-09-09T00:00:02.000160","PERIAPSIS":"538.298","REF_FRAME":"TEME","TLE_LINE2":"2 52547  53.2153 109.9025 0002150  57.9140 245.8388 15.08826975 18552","NORAD_CAT_ID":"52547","APOAPSIS":"541.273","PERIOD":"95.438","MEAN_ANOMALY":"245.8388","OBJECT_ID":"2022-051Q","COUNTRY_CODE":"US","REV_AT_EPOCH":"1855","MEAN_MOTION_DDOT":"0.0000000000000","DECAY_DATE":null},{"RA_OF_ASC_NODE":"104.8823","INCLINATION":"53.2180","ELEMENT_SET_NO":"999","EPHEMERIS_TYPE":"0","BSTAR":"0.00081530000000","SEMIMAJOR_AXIS":"6917.899","FILE":"3564421","RCS_SIZE":"LARGE","CLASSIFICATION_TYPE":"U","CENTER_NAME":"EARTH","OBJECT_TYPE":"PAYLOAD","SITE":"AFWTR","ARG_OF_PERICENTER":"64.6581","OBJECT_NAME":"STARLINK-3931","MEAN_MOTION":"15.08833921","GP_ID":"212070362","MEAN_MOTION_DOT":"0.00012709","ECCENTRICITY":"0.00015370","TIME_SYSTEM":"UTC","LAUNCH_DATE":"2022-05-13","PERIAPSIS":"538.701","TLE_LINE1":"1 52548U 22051R   22252.00002315  .00012709  00000-0  81530-3 0  9997","EPOCH":"2022-09-09T00:00:02.000160","REF_FRAME":"TEME","MEAN_ELEMENT_THEORY":"SGP4","COUNTRY_CODE":"US","REV_AT_EPOCH":"1863","DECAY_DATE":null,"MEAN_MOTION_DDOT":"0.0000000000000","NORAD_CAT_ID":"52548","TLE_LINE2":"2 52548  53.2180 104.8823 0001537  64.6581 186.5861 15.08833921 18630","PERIOD":"95.438","APOAPSIS":"540.827","OBJECT_ID":"2022-051R","MEAN_ANOMALY":"186.5861"},{"MEAN_ANOMALY":"93.1916","OBJECT_ID":"2022-051S","APOAPSIS":"541.027","PERIOD":"95.439","TLE_LINE2":"2 52549  53.2165 104.8830 0001780  58.0687  93.1916 15.08823645 18621","NORAD_CAT_ID":"52549","DECAY_DATE":null,"MEAN_MOTION_DDOT":"0.0000000000000","REV_AT_EPOCH":"1862","COUNTRY_CODE":"US","MEAN_ELEMENT_THEORY":"SGP4","REF_FRAME":"TEME","TLE_LINE1":"1 52549U 22051S   22252.00002315  .00037276  00000-0  23489-2 0  9992","PERIAPSIS":"538.564","EPOCH":"2022-09-09T00:00:02.000160","LAUNCH_DATE":"2022-05-13","TIME_SYSTEM":"UTC","ECCENTRICITY":"0.00017800","MEAN_MOTION_DOT":"0.00037276","GP_ID":"212070363","OBJECT_TYPE":"PAYLOAD","SITE":"AFWTR","OBJECT_NAME":"STARLINK-3935","MEAN_MOTION":"15.08823645","ARG_OF_PERICENTER":"58.0687","CENTER_NAME":"EARTH","CLASSIFICATION_TYPE":"U","RCS_SIZE":"LARGE","FILE":"3564421","SEMIMAJOR_AXIS":"6917.930","ELEMENT_SET_NO":"999","BSTAR":"0.00234890000000","EPHEMERIS_TYPE":"0","INCLINATION":"53.2165","RA_OF_ASC_NODE":"104.8830"},{"MEAN_ANOMALY":"157.0079","OBJECT_ID":"2022-051T","TLE_LINE2":"2 52550  53.2177 104.8828 0001843  54.1784 157.0079 15.08835292 18630","NORAD_CAT_ID":"52550","APOAPSIS":"541.035","PERIOD":"95.438","MEAN_MOTION_DDOT":"0.0000000000000","DECAY_DATE":null,"COUNTRY_CODE":"US","REV_AT_EPOCH":"1863","MEAN_ELEMENT_THEORY":"SGP4","REF_FRAME":"TEME","TLE_LINE1":"1 52550U 22051T   22252.00002315  .00036336  00000-0  22897-2 0  9992","EPOCH":"2022-09-09T00:00:02.000160","PERIAPSIS":"538.485","TIME_SYSTEM":"UTC","LAUNCH_DATE":"2022-05-13","ECCENTRICITY":"0.00018430","MEAN_MOTION_DOT":"0.00036336","GP_ID":"212070521","SITE":"AFWTR","OBJECT_TYPE":"PAYLOAD","OBJECT_NAME":"STARLINK-3965","MEAN_MOTION":"15.08835292","ARG_OF_PERICENTER":"54.1784","CENTER_NAME":"EARTH","CLASSIFICATION_TYPE":"U","FILE":"3564421","RCS_SIZE":"LARGE","SEMIMAJOR_AXIS":"6917.895","INCLINATION":"53.2177","RA_OF_ASC_NODE":"104.8828","EPHEMERIS_TYPE":"0","BSTAR":"0.00228970000000","ELEMENT_SET_NO":"999"},{"SITE":"AFWTR","OBJECT_TYPE":"PAYLOAD","MEAN_MOTION":"15.08831024","OBJECT_NAME":"STARLINK-3969","ARG_OF_PERICENTER":"64.0894","GP_ID":"212095023","MEAN_MOTION_DOT":"0.00002820","ECCENTRICITY":"0.00018810","LAUNCH_DATE":"2022-05-13","TIME_SYSTEM":"UTC","ELEMENT_SET_NO":"999","EPHEMERIS_TYPE":"0","BSTAR":"0.00019524000000","INCLINATION":"53.2177","RA_OF_ASC_NODE":"105.2581","SEMIMAJOR_AXIS":"6917.908","RCS_SIZE":"LARGE","FILE":"3564431","CENTER_NAME":"EARTH","CLASSIFICATION_TYPE":"U","REV_AT_EPOCH":"130","COUNTRY_CODE":"US","DECAY_DATE":null,"MEAN_MOTION_DDOT":"0.0000000000000","APOAPSIS":"541.074","PERIOD":"95.438","TLE_LINE2":"2 52551  53.2177 105.2581 0001881  64.0894  14.1979 15.08831024  1303","NORAD_CAT_ID":"52551","MEAN_ANOMALY":"14.1979","OBJECT_ID":"2022-051U","PERIAPSIS":"538.472","TLE_LINE1":"1 52551U 22051U   22251.91667824  .00002820  00000-0  19524-3 0  9999","EPOCH":"2022-09-08T22:00:00.999936","REF_FRAME":"TEME","MEAN_ELEMENT_THEORY":"SGP4"},{"PERIAPSIS":"538.541","TLE_LINE1":"1 52552U 22051V   22252.00002315  .00013081  00000-0  83855-3 0  9998","EPOCH":"2022-09-09T00:00:02.000160","REF_FRAME":"TEME","MEAN_ELEMENT_THEORY":"SGP4","COUNTRY_CODE":"US","REV_AT_EPOCH":"1863","DECAY_DATE":null,"MEAN_MOTION_DDOT":"0.0000000000000","NORAD_CAT_ID":"52552","TLE_LINE2":"2 52552  53.2183 104.8821 0001760  51.2152 220.0487 15.08835814 18631","PERIOD":"95.438","APOAPSIS":"540.976","MEAN_ANOMALY":"220.0487","OBJECT_ID":"2022-051V","RA_OF_ASC_NODE":"104.8821","INCLINATION":"53.2183","BSTAR":"0.00083855000000","EPHEMERIS_TYPE":"0","ELEMENT_SET_NO":"999","SEMIMAJOR_AXIS":"6917.893","FILE":"3564421","RCS_SIZE":"LARGE","CLASSIFICATION_TYPE":"U","CENTER_NAME":"EARTH","ARG_OF_PERICENTER":"51.2152","SITE":"AFWTR","OBJECT_TYPE":"PAYLOAD","MEAN_MOTION":"15.08835814","OBJECT_NAME":"STARLINK-3966","GP_ID":"212070522","MEAN_MOTION_DOT":"0.00013081","ECCENTRICITY":"0.00017600","TIME_SYSTEM":"UTC","LAUNCH_DATE":"2022-05-13"},{"SEMIMAJOR_AXIS":"6917.939","EPHEMERIS_TYPE":"0","ELEMENT_SET_NO":"999","BSTAR":"0.00219290000000","INCLINATION":"53.2175","RA_OF_ASC_NODE":"104.8836","CENTER_NAME":"EARTH","CLASSIFICATION_TYPE":"U","RCS_SIZE":"LARGE","FILE":"3564421","GP_ID":"212070365","MEAN_MOTION_DOT":"0.00034766","SITE":"AFWTR","OBJECT_NAME":"STARLINK-3858","OBJECT_TYPE":"PAYLOAD","MEAN_MOTION":"15.08820901","ARG_OF_PERICENTER":"52.3822","LAUNCH_DATE":"2022-05-13","TIME_SYSTEM":"UTC","ECCENTRICITY":"0.00017520","REF_FRAME":"TEME","TLE_LINE1":"1 52553U 22051W   22252.00002315  .00034766  00000-0  21929-2 0  9995","EPOCH":"2022-09-09T00:00:02.000160","PERIAPSIS":"538.592","MEAN_ELEMENT_THEORY":"SGP4","DECAY_DATE":null,"MEAN_MOTION_DDOT":"0.0000000000000","REV_AT_EPOCH":"1863","COUNTRY_CODE":"US","MEAN_ANOMALY":"138.8776","OBJECT_ID":"2022-051W","APOAPSIS":"541.016","PERIOD":"95.439","TLE_LINE2":"2 52553  53.2175 104.8836 0001752  52.3822 138.8776 15.08820901 18634","NORAD_CAT_ID":"52553"}];
